{
  "version": 1,
  "fetchedAt": "2026-06-21T12:32:46.387Z",
  "source": "celestrak-gp",
  "counts": {
    "station": 24,
    "satellite": 520,
    "debris": 250
  },
  "objects": [
    {
      "id": "39766",
      "name": "ALOS-2",
      "noradId": 39766,
      "line1": "1 39766U 14029A   26172.19713878  .00000862  00000+0  12234-3 0  9999",
      "line2": "2 39766  97.9219 269.3033 0001621  92.8155 267.3242 14.79466436652173",
      "category": "satellite"
    },
    {
      "id": "35682",
      "name": "DUBAISAT-1",
      "noradId": 35682,
      "line1": "1 35682U 09041B   26171.34499823  .00000558  00000+0  90158-4 0  9991",
      "line2": "2 35682  98.0056 304.5680 0011555  64.7840 295.4565 14.75126564905568",
      "category": "satellite"
    },
    {
      "id": "35931",
      "name": "OCEANSAT-2",
      "noradId": 35931,
      "line1": "1 35931U 09051A   26172.20275315 -.00000195  00000+0 -10732-3 0  9991",
      "line2": "2 35931  98.2323 158.6537 0015540 223.7798 136.2138 13.99663407879891",
      "category": "satellite"
    },
    {
      "id": "35946",
      "name": "WORLDVIEW-2 (WV-2)",
      "noradId": 35946,
      "line1": "1 35946U 09055A   26171.43434226  .00000074  00000+0  39024-4 0  9993",
      "line2": "2 35946  98.4736 244.8392 0003904 197.1110 162.9946 14.37900227876119",
      "category": "satellite"
    },
    {
      "id": "36036",
      "name": "SMOS",
      "noradId": 36036,
      "line1": "1 36036U 09059A   26171.45582071  .00000169  00000+0  67815-4 0  9996",
      "line2": "2 36036  98.4426 358.7428 0001324  87.9186 272.2154 14.39774008873924",
      "category": "satellite"
    },
    {
      "id": "36110",
      "name": "YAOGAN-7",
      "noradId": 36110,
      "line1": "1 36110U 09069A   26171.40605635  .00000340  00000+0  54142-4 0  9997",
      "line2": "2 36110  98.0068  57.2532 0025376  31.7797 328.4939 14.78012533890105",
      "category": "satellite"
    },
    {
      "id": "36605",
      "name": "TANDEM-X",
      "noradId": 36605,
      "line1": "1 36605U 10030A   26170.49711645  .00000194  00000+0  12414-4 0  9996",
      "line2": "2 36605  97.4451 178.1721 0001891  87.7400 272.4051 15.19151444886990",
      "category": "satellite"
    },
    {
      "id": "36795",
      "name": "CARTOSAT-2B",
      "noradId": 36795,
      "line1": "1 36795U 10035A   26172.19686382  .00000302  00000+0  48375-4 0  9995",
      "line2": "2 36795  97.9945 222.7217 0011576 170.7644 189.3782 14.78665420860440",
      "category": "satellite"
    },
    {
      "id": "36834",
      "name": "YAOGAN-10",
      "noradId": 36834,
      "line1": "1 36834U 10038A   26172.19651413  .00001165  00000+0  14169-3 0  9990",
      "line2": "2 36834  97.8975 195.5694 0001742  86.7657   3.9199 14.85359744857802",
      "category": "satellite"
    },
    {
      "id": "37216",
      "name": "COSMO-SKYMED 4",
      "noradId": 37216,
      "line1": "1 37216U 10060A   26172.15683384  .00000481  00000+0  66930-4 0  9992",
      "line2": "2 37216  97.8891 355.6985 0001455  84.9270 275.2110 14.82157204845154",
      "category": "satellite"
    },
    {
      "id": "37387",
      "name": "RESOURCESAT-2",
      "noradId": 37387,
      "line1": "1 37387U 11015A   26171.46738348  .00000002  00000+0  20960-4 0  9998",
      "line2": "2 37387  98.7643 238.8867 0010271 244.9511 115.0601 14.21600287786642",
      "category": "satellite"
    },
    {
      "id": "37781",
      "name": "HAIYANG-2A",
      "noradId": 37781,
      "line1": "1 37781U 11043A   26172.18802041  .00000112  00000+0  16525-3 0  9992",
      "line2": "2 37781  99.3397 174.7759 0005807  83.3893 276.7917 13.74332728747201",
      "category": "satellite"
    },
    {
      "id": "37791",
      "name": "RASAT",
      "noradId": 37791,
      "line1": "1 37791U 11044D   26172.20334008  .00000273  00000+0  55879-4 0  9994",
      "line2": "2 37791  98.0573 263.5389 0020568 175.9638 271.1854 14.68169237793775",
      "category": "satellite"
    },
    {
      "id": "37841",
      "name": "SRMSAT",
      "noradId": 37841,
      "line1": "1 37841U 11058D   26171.35085059  .00000352  00000+0  47312-4 0  9990",
      "line2": "2 37841  19.9729  40.3181 0011727 238.5935 283.9086 14.11576136758261",
      "category": "satellite"
    },
    {
      "id": "38012",
      "name": "PLEIADES 1A",
      "noradId": 38012,
      "line1": "1 38012U 11076F   26172.17744939  .00000050  00000+0  20682-4 0  9997",
      "line2": "2 38012  98.1971 247.2271 0001711  95.6916 348.7708 14.58532491772579",
      "category": "satellite"
    },
    {
      "id": "38038",
      "name": "ZIYUAN 1-02C (ZY 1-02C)",
      "noradId": 38038,
      "line1": "1 38038U 11079A   26172.18477071  .00000118  00000+0  53097-4 0  9990",
      "line2": "2 38038  98.4066 239.4100 0005304 302.2203 143.0549 14.38217020759780",
      "category": "satellite"
    },
    {
      "id": "38338",
      "name": "ARIRANG-3 (KOMPSAT-3)",
      "noradId": 38338,
      "line1": "1 38338U 12025B   26172.13854225  .00000299  00000+0  68691-4 0  9996",
      "line2": "2 38338  98.1172 129.5303 0006781  99.5702 260.6266 14.62208950751921",
      "category": "satellite"
    },
    {
      "id": "38709",
      "name": "EXACTVIEW-1 (ADS-1B)",
      "noradId": 38709,
      "line1": "1 38709U 12039C   26171.33029843  .00000089  00000+0  57653-4 0  9997",
      "line2": "2 38709  98.9781 288.7915 0011328 157.6726 202.4948 14.24985343723150",
      "category": "satellite"
    },
    {
      "id": "38755",
      "name": "SPOT 6",
      "noradId": 38755,
      "line1": "1 38755U 12047A   26172.17669876  .00000079  00000+0  26778-4 0  9999",
      "line2": "2 38755  98.2113 239.4395 0001534  93.7642 266.3733 14.58564603733637",
      "category": "satellite"
    },
    {
      "id": "39019",
      "name": "PLEIADES 1B",
      "noradId": 39019,
      "line1": "1 39019U 12068A   26172.19562464  .00000103  00000+0  31999-4 0  9992",
      "line2": "2 39019  98.1941 247.1924 0001670  91.6802 268.4588 14.58562370721434",
      "category": "satellite"
    },
    {
      "id": "39030",
      "name": "GOKTURK 2",
      "noradId": 39030,
      "line1": "1 39030U 12073A   26172.14957046  .00000143  00000+0  27918-4 0  9990",
      "line2": "2 39030  97.6818   9.3819 0001433  56.6154 303.5193 14.75545362725093",
      "category": "satellite"
    },
    {
      "id": "39084",
      "name": "LANDSAT 8",
      "noradId": 39084,
      "line1": "1 39084U 13008A   26171.45824818  .00000230  00000+0  61084-4 0  9990",
      "line2": "2 39084  98.2301 241.5547 0001358  93.7192 266.4162 14.57096364698370",
      "category": "satellite"
    },
    {
      "id": "39086",
      "name": "SARAL",
      "noradId": 39086,
      "line1": "1 39086U 13009A   26171.46261523  .00000045  00000+0  32654-4 0  9997",
      "line2": "2 39086  98.5558 357.9883 0000619 282.5589  77.5526 14.32856589696077",
      "category": "satellite"
    },
    {
      "id": "39150",
      "name": "GAOFEN-1",
      "noradId": 39150,
      "line1": "1 39150U 13018A   26172.19680083  .00000053  00000+0  14902-4 0  9991",
      "line2": "2 39150  97.9088 244.1836 0015743 252.1197 107.8296 14.76539440708838",
      "category": "satellite"
    },
    {
      "id": "39160",
      "name": "VNREDSAT 1",
      "noradId": 39160,
      "line1": "1 39160U 13021B   26172.18743522  .00000413  00000+0  85714-4 0  9992",
      "line2": "2 39160  97.9072 225.4506 0001721  88.9086 271.2314 14.64860291700872",
      "category": "satellite"
    },
    {
      "id": "39227",
      "name": "ARIRANG-5 (KOMPSAT-5)",
      "noradId": 39227,
      "line1": "1 39227U 13042A   26172.15665669  .00000146  00000+0  14730-4 0  9994",
      "line2": "2 39227  97.6201 358.8013 0005367 111.6189 248.5609 15.04494959704450",
      "category": "satellite"
    },
    {
      "id": "39418",
      "name": "SKYSAT-A",
      "noradId": 39418,
      "line1": "1 39418U 13066C   26170.70438518  .00002071  00000+0  12046-3 0  9998",
      "line2": "2 39418  97.3811 220.0216 0019939 308.1910  51.7525 15.12985941688868",
      "category": "satellite"
    },
    {
      "id": "39419",
      "name": "DUBAISAT-2",
      "noradId": 39419,
      "line1": "1 39419U 13066D   26172.17882431  .00003952  00000+0  24532-3 0  9991",
      "line2": "2 39419  97.4573 162.2184 0011871  28.0122 332.1745 15.10209036686990",
      "category": "satellite"
    },
    {
      "id": "39574",
      "name": "GPM-CORE",
      "noradId": 39574,
      "line1": "1 39574U 14009C   26171.44675697  .00009759  00000+0  21311-3 0  9997",
      "line2": "2 39574  64.9722 297.2099 0011702 252.7565 107.2295 15.44632575698316",
      "category": "satellite"
    },
    {
      "id": "39634",
      "name": "SENTINEL-1A",
      "noradId": 39634,
      "line1": "1 39634U 14016A   26172.20749209  .00000270  00000+0  67059-4 0  9997",
      "line2": "2 39634  98.1781 179.6818 0001401  82.6670 277.4689 14.59200581650601",
      "category": "satellite"
    },
    {
      "id": "39731",
      "name": "KAZEOSAT 1",
      "noradId": 39731,
      "line1": "1 39731U 14024A   26172.18476906 -.00000023  00000+0  58729-5 0  9994",
      "line2": "2 39731  98.3200 244.5330 0001269  77.9759 282.1573 14.42081019639130",
      "category": "satellite"
    }
  ]
}